[{"OBJECT_NAME":"STARLINK-5214","OBJECT_ID":"2022-175E","EPOCH":"2023-11-20T09:44:01.943520","MEAN_MOTION":15.08840668,"ECCENTRICITY":0.0001326,"INCLINATION":53.2168,"RA_OF_ASC_NODE":216.3771,"ARG_OF_PERICENTER":86.9573,"MEAN_ANOMALY":273.1571,"EPHEMERIS_TYPE":0,"CLASSIFICATION_TYPE":"U","NORAD_CAT_ID":54762,"ELEMENT_SET_NO":999,"REV_AT_EPOCH":5090,"BSTAR":0.00014399,"MEAN_MOTION_DOT":2.004e-5,"MEAN_MOTION_DDOT":0},{"OBJECT_NAME":"STARLINK-5191","OBJECT_ID":"2022-175F","EPOCH":"2023-11-20T09:54:37.761120","MEAN_MOTION":15.08847203,"ECCENTRICITY":0.0002108,"INCLINATION":53.2166,"RA_OF_ASC_NODE":216.4229,"ARG_OF_PERICENTER":81.3926,"MEAN_ANOMALY":278.7305,"EPHEMERIS_TYPE":0,"CLASSIFICATION_TYPE":"U","NORAD_CAT_ID":54763,"ELEMENT_SET_NO":999,"REV_AT_EPOCH":5090,"BSTAR":0.00017999,"MEAN_MOTION_DOT":2.578e-5,"MEAN_MOTION_DDOT":0},{"OBJECT_NAME":"STARLINK-5458","OBJECT_ID":"2022-175G","EPOCH":"2023-11-20T03:02:37.343904","MEAN_MOTION":15.08847318,"ECCENTRICITY":0.0001536,"INCLINATION":53.2169,"RA_OF_ASC_NODE":217.4808,"ARG_OF_PERICENTER":93.8043,"MEAN_ANOMALY":266.3125,"EPHEMERIS_TYPE":0,"CLASSIFICATION_TYPE":"U","NORAD_CAT_ID":54764,"ELEMENT_SET_NO":999,"REV_AT_EPOCH":5302,"BSTAR":8.5884e-5,"MEAN_MOTION_DOT":1.079e-5,"MEAN_MOTION_DDOT":0},{"OBJECT_NAME":"STARLINK-5466","OBJECT_ID":"2022-175H","EPOCH":"2023-11-20T03:27:46.543680","MEAN_MOTION":15.08849902,"ECCENTRICITY":0.0001669,"INCLINATION":53.2169,"RA_OF_ASC_NODE":217.5887,"ARG_OF_PERICENTER":92.2305,"MEAN_ANOMALY":267.8878,"EPHEMERIS_TYPE":0,"CLASSIFICATION_TYPE":"U","NORAD_CAT_ID":54765,"ELEMENT_SET_NO":999,"REV_AT_EPOCH":5302,"BSTAR":0.00040028,"MEAN_MOTION_DOT":6.09e-5,"MEAN_MOTION_DDOT":0},{"OBJECT_NAME":"STARLINK-5471","OBJECT_ID":"2022-175J","EPOCH":"2023-11-20T09:33:24.203520","MEAN_MOTION":15.08841674,"ECCENTRICITY":0.0001555,"INCLINATION":53.2171,"RA_OF_ASC_NODE":216.3316,"ARG_OF_PERICENTER":90.6095,"MEAN_ANOMALY":269.5075,"EPHEMERIS_TYPE":0,"CLASSIFICATION_TYPE":"U","NORAD_CAT_ID":54766,"ELEMENT_SET_NO":999,"REV_AT_EPOCH":5306,"BSTAR":6.6384e-5,"MEAN_MOTION_DOT":7.69e-6,"MEAN_MOTION_DDOT":0},{"OBJECT_NAME":"STARLINK-5472","OBJECT_ID":"2022-175K","EPOCH":"2023-11-19T23:55:46.658784","MEAN_MOTION":15.08849398,"ECCENTRICITY":0.0001616,"INCLINATION":53.218,"RA_OF_ASC_NODE":218.0892,"ARG_OF_PERICENTER":96.2,"MEAN_ANOMALY":263.9176,"EPHEMERIS_TYPE":0,"CLASSIFICATION_TYPE":"U","NORAD_CAT_ID":54767,"ELEMENT_SET_NO":999,"REV_AT_EPOCH":5300,"BSTAR":1.6374e-5,"MEAN_MOTION_DOT":-2.7e-7,"MEAN_MOTION_DDOT":0},{"OBJECT_NAME":"STARLINK-5444","OBJECT_ID":"2022-175L","EPOCH":"2023-11-20T08:46:29.711424","MEAN_MOTION":15.08838427,"ECCENTRICITY":0.000152,"INCLINATION":53.2167,"RA_OF_ASC_NODE":201.8685,"ARG_OF_PERICENTER":91.1837,"MEAN_ANOMALY":268.9329,"EPHEMERIS_TYPE":0,"CLASSIFICATION_TYPE":"U","NORAD_CAT_ID":54768,"ELEMENT_SET_NO":999,"REV_AT_EPOCH":5326,"BSTAR":1.2916e-5,"MEAN_MOTION_DOT":-8.2e-7,"MEAN_MOTION_DDOT":0},{"OBJECT_NAME":"STARLINK-5404","OBJECT_ID":"2022-175M","EPOCH":"2023-11-20T09:38:42.708480","MEAN_MOTION":15.08839781,"ECCENTRICITY":0.0001641,"INCLINATION":53.2175,"RA_OF_ASC_NODE":216.3541,"ARG_OF_PERICENTER":84.6398,"MEAN_ANOMALY":275.4782,"EPHEMERIS_TYPE":0,"CLASSIFICATION_TYPE":"U","NORAD_CAT_ID":54769,"ELEMENT_SET_NO":999,"REV_AT_EPOCH":5090,"BSTAR":3.635e-5,"MEAN_MOTION_DOT":2.91e-6,"MEAN_MOTION_DDOT":0},{"OBJECT_NAME":"STARLINK-5448","OBJECT_ID":"2022-175N","EPOCH":"2023-11-19T22:46:16.483296","MEAN_MOTION":15.08838228,"ECCENTRICITY":0.0001435,"INCLINATION":53.216,"RA_OF_ASC_NODE":203.5368,"ARG_OF_PERICENTER":83.6123,"MEAN_ANOMALY":276.5032,"EPHEMERIS_TYPE":0,"CLASSIFICATION_TYPE":"U","NORAD_CAT_ID":54770,"ELEMENT_SET_NO":999,"REV_AT_EPOCH":5320,"BSTAR":0.00011253,"MEAN_MOTION_DOT":1.503e-5,"MEAN_MOTION_DDOT":0},{"OBJECT_NAME":"STARLINK-5451","OBJECT_ID":"2022-175P","EPOCH":"2023-11-20T02:43:20.414208","MEAN_MOTION":15.08844834,"ECCENTRICITY":0.0001525,"INCLINATION":53.216,"RA_OF_ASC_NODE":212.4133,"ARG_OF_PERICENTER":91.0472,"MEAN_ANOMALY":269.0695,"EPHEMERIS_TYPE":0,"CLASSIFICATION_TYPE":"U","NORAD_CAT_ID":54771,"ELEMENT_SET_NO":999,"REV_AT_EPOCH":5309,"BSTAR":0.00012531,"MEAN_MOTION_DOT":1.707e-5,"MEAN_MOTION_DDOT":0},{"OBJECT_NAME":"STARLINK-5452","OBJECT_ID":"2022-175Q","EPOCH":"2023-11-19T22:40:57.611136","MEAN_MOTION":15.0884495,"ECCENTRICITY":0.0001463,"INCLINATION":53.2175,"RA_OF_ASC_NODE":203.5133,"ARG_OF_PERICENTER":91.2656,"MEAN_ANOMALY":268.8504,"EPHEMERIS_TYPE":0,"CLASSIFICATION_TYPE":"U","NORAD_CAT_ID":54772,"ELEMENT_SET_NO":999,"REV_AT_EPOCH":5320,"BSTAR":0.00010188,"MEAN_MOTION_DOT":1.334e-5,"MEAN_MOTION_DDOT":0},{"OBJECT_NAME":"STARLINK-5453","OBJECT_ID":"2022-175R","EPOCH":"2023-11-20T02:55:57.351648","MEAN_MOTION":15.08835203,"ECCENTRICITY":0.000135,"INCLINATION":53.2161,"RA_OF_ASC_NODE":217.4494,"ARG_OF_PERICENTER":89.5037,"MEAN_ANOMALY":270.6109,"EPHEMERIS_TYPE":0,"CLASSIFICATION_TYPE":"U","NORAD_CAT_ID":54773,"ELEMENT_SET_NO":999,"REV_AT_EPOCH":5302,"BSTAR":-2.0655e-5,"MEAN_MOTION_DOT":-6.17e-6,"MEAN_MOTION_DDOT":0},{"OBJECT_NAME":"STARLINK-5454","OBJECT_ID":"2022-175S","EPOCH":"2023-11-20T08:44:59.646336","MEAN_MOTION":15.08836949,"ECCENTRICITY":0.0001542,"INCLINATION":53.2167,"RA_OF_ASC_NODE":201.1669,"ARG_OF_PERICENTER":88.7765,"MEAN_ANOMALY":271.3404,"EPHEMERIS_TYPE":0,"CLASSIFICATION_TYPE":"U","NORAD_CAT_ID":54774,"ELEMENT_SET_NO":999,"REV_AT_EPOCH":5327,"BSTAR":-1.8145e-6,"MEAN_MOTION_DOT":-3.17e-6,"MEAN_MOTION_DDOT":0},{"OBJECT_NAME":"STARLINK-5465","OBJECT_ID":"2022-175T","EPOCH":"2023-11-20T02:50:38.025024","MEAN_MOTION":15.08847122,"ECCENTRICITY":0.0001554,"INCLINATION":53.2155,"RA_OF_ASC_NODE":217.4254,"ARG_OF_PERICENTER":91.8607,"MEAN_ANOMALY":268.2563,"EPHEMERIS_TYPE":0,"CLASSIFICATION_TYPE":"U","NORAD_CAT_ID":54775,"ELEMENT_SET_NO":999,"REV_AT_EPOCH":5302,"BSTAR":0.00017131,"MEAN_MOTION_DOT":2.44e-5,"MEAN_MOTION_DDOT":0},{"OBJECT_NAME":"STARLINK-5470","OBJECT_ID":"2022-175U","EPOCH":"2023-11-20T10:15:44.121600","MEAN_MOTION":15.08845711,"ECCENTRICITY":0.0001659,"INCLINATION":53.2163,"RA_OF_ASC_NODE":215.8084,"ARG_OF_PERICENTER":85.5382,"MEAN_ANOMALY":274.58,"EPHEMERIS_TYPE":0,"CLASSIFICATION_TYPE":"U","NORAD_CAT_ID":54776,"ELEMENT_SET_NO":999,"REV_AT_EPOCH":5307,"BSTAR":0.00020001,"MEAN_MOTION_DOT":2.897e-5,"MEAN_MOTION_DDOT":0},{"OBJECT_NAME":"STARLINK-5468","OBJECT_ID":"2022-175V","EPOCH":"2023-11-20T10:42:15.457536","MEAN_MOTION":15.08842193,"ECCENTRICITY":0.0001549,"INCLINATION":53.2172,"RA_OF_ASC_NODE":215.9159,"ARG_OF_PERICENTER":94.8187,"MEAN_ANOMALY":265.2982,"EPHEMERIS_TYPE":0,"CLASSIFICATION_TYPE":"U","NORAD_CAT_ID":54777,"ELEMENT_SET_NO":999,"REV_AT_EPOCH":5091,"BSTAR":6.1164e-5,"MEAN_MOTION_DOT":6.86e-6,"MEAN_MOTION_DDOT":0},{"OBJECT_NAME":"STARLINK-5450","OBJECT_ID":"2022-175W","EPOCH":"2023-11-20T09:38:03.485472","MEAN_MOTION":15.08837326,"ECCENTRICITY":0.0001453,"INCLINATION":53.2165,"RA_OF_ASC_NODE":201.385,"ARG_OF_PERICENTER":95.3585,"MEAN_ANOMALY":264.7573,"EPHEMERIS_TYPE":0,"CLASSIFICATION_TYPE":"U","NORAD_CAT_ID":54778,"ELEMENT_SET_NO":999,"REV_AT_EPOCH":5327,"BSTAR":1.9819e-5,"MEAN_MOTION_DOT":2.7e-7,"MEAN_MOTION_DDOT":0}]
