STARLINK-5214           
1 54762U 22175E   23324.40557805  .00002004  00000+0  14399-3 0  9993
2 54762  53.2168 216.3771 0001326  86.9573 273.1571 15.08840668 50904
STARLINK-5191           
1 54763U 22175F   23324.41293705  .00002578  00000+0  17999-3 0  9996
2 54763  53.2166 216.4229 0002108  81.3926 278.7305 15.08847203 50900
STARLINK-5458           
1 54764U 22175G   23324.12682111  .00001079  00000+0  85884-4 0  9992
2 54764  53.2169 217.4808 0001536  93.8043 266.3125 15.08847318 53026
STARLINK-5466           
1 54765U 22175H   23324.14428870  .00006090  00000+0  40028-3 0  9993
2 54765  53.2169 217.5887 0001669  92.2305 267.8878 15.08849902 53028
STARLINK-5471           
1 54766U 22175J   23324.39819680  .00000769  00000+0  66384-4 0  9995
2 54766  53.2171 216.3316 0001555  90.6095 269.5075 15.08841674 53068
STARLINK-5472           
1 54767U 22175K   23323.99706781 -.00000027  00000+0  16374-4 0  9990
2 54767  53.2180 218.0892 0001616  96.2000 263.9176 15.08849398 53008
STARLINK-5444           
1 54768U 22175L   23324.36562166 -.00000082  00000+0  12916-4 0  9999
2 54768  53.2167 201.8685 0001520  91.1837 268.9329 15.08838427 53264
STARLINK-5404           
1 54769U 22175M   23324.40188320  .00000291  00000+0  36350-4 0  9990
2 54769  53.2175 216.3541 0001641  84.6398 275.4782 15.08839781 50907
STARLINK-5448           
1 54770U 22175N   23323.94880189  .00001503  00000+0  11253-3 0  9993
2 54770  53.2160 203.5368 0001435  83.6123 276.5032 15.08838228 53205
STARLINK-5451           
1 54771U 22175P   23324.11343072  .00001707  00000+0  12531-3 0  9995
2 54771  53.2160 212.4133 0001525  91.0472 269.0695 15.08844834 53094
STARLINK-5452           
1 54772U 22175Q   23323.94511124  .00001334  00000+0  10188-3 0  9993
2 54772  53.2175 203.5133 0001463  91.2656 268.8504 15.08844950 53207
STARLINK-5453           
1 54773U 22175R   23324.12219157 -.00000617  00000+0 -20655-4 0  9992
2 54773  53.2161 217.4494 0001350  89.5037 270.6109 15.08835203 53028
STARLINK-5454           
1 54774U 22175S   23324.36457924 -.00000317  00000+0 -18145-5 0  9994
2 54774  53.2167 201.1669 0001542  88.7765 271.3404 15.08836949 53272
STARLINK-5465           
1 54775U 22175T   23324.11849566  .00002440  00000+0  17131-3 0  9994
2 54775  53.2155 217.4254 0001554  91.8607 268.2563 15.08847122 53022
STARLINK-5470           
1 54776U 22175U   23324.42759400  .00002897  00000+0  20001-3 0  9992
2 54776  53.2163 215.8084 0001659  85.5382 274.5800 15.08845711 53072
STARLINK-5468           
1 54777U 22175V   23324.44601224  .00000686  00000+0  61164-4 0  9995
2 54777  53.2172 215.9159 0001549  94.8187 265.2982 15.08842193 50910
STARLINK-5450           
1 54778U 22175W   23324.40142923  .00000027  00000+0  19819-4 0  9997
2 54778  53.2165 201.3850 0001453  95.3585 264.7573 15.08837326 53276
